{
    "links": {
        "self": "http://www.neowsapp.com/rest/v1/neo/3831459?api_key=iIulBulltgU6a56xZRHN4H3l9WmuAYTsLGpBGhQ2"
    },
    "id": "3831459",
    "neo_reference_id": "3831459",
    "name": "(2018 TM2)",
    "designation": "2018 TM2",
    "nasa_jpl_url": "http://ssd.jpl.nasa.gov/sbdb.cgi?sstr=3831459",
    "absolute_magnitude_h": 25.1,
    "estimated_diameter": {
        "kilometers": {
            "estimated_diameter_min": 0.0253837029,
            "estimated_diameter_max": 0.0567596853
        },
        "meters": {
            "estimated_diameter_min": 25.3837029364,
            "estimated_diameter_max": 56.7596852866
        },
        "miles": {
            "estimated_diameter_min": 0.0157726969,
            "estimated_diameter_max": 0.0352688224
        },
        "feet": {
            "estimated_diameter_min": 83.279867942,
            "estimated_diameter_max": 186.2194458756
        }
    },
    "is_potentially_hazardous_asteroid": false,
    "close_approach_data": [
        {
            "close_approach_date": "2018-10-20",
            "close_approach_date_full": "2018-Oct-20 16:20",
            "epoch_date_close_approach": 1540052400000,
            "relative_velocity": {
                "kilometers_per_second": "6.7584781949",
                "kilometers_per_hour": "24330.5215015454",
                "miles_per_hour": "15118.039874113"
            },
            "miss_distance": {
                "astronomical": "0.1103349469",
                "lunar": "42.9202943441",
                "kilometers": "16505873.042803103",
                "miles": "10256273.9190567014"
            },
            "orbiting_body": "Earth"
        }
    ],
    "orbital_data": {
        "orbit_id": "3",
        "orbit_determination_date": "2018-10-20 06:54:45",
        "first_observation_date": "2018-10-03",
        "last_observation_date": "2018-10-20",
        "data_arc_in_days": 17,
        "observations_used": 18,
        "orbit_uncertainty": "8",
        "minimum_orbit_intersection": ".109941",
        "jupiter_tisserand_invariant": "3.227",
        "epoch_osculation": "2458401.5",
        "eccentricity": ".5586533448293597",
        "semi_major_axis": "2.494022095761873",
        "inclination": "6.791740333278501",
        "ascending_node_longitude": "17.39313735533277",
        "orbital_period": "1438.629203569756",
        "perihelion_distance": "1.100728309886173",
        "perihelion_argument": "16.78720273623608",
        "aphelion_distance": "3.887315881637574",
        "perihelion_time": "2458418.378179454223",
        "mean_anomaly": "355.776434547246",
        "mean_motion": ".2502382122556046",
        "equinox": "J2000",
        "orbit_class": {
            "orbit_class_type": "AMO",
            "orbit_class_description": "Near-Earth asteroid orbits similar to that of 1221 Amor",
            "orbit_class_range": "1.017 AU < q (perihelion) < 1.3 AU"
        }
    },
    "is_sentry_object": false
}